{
    "links": {
        "self": "http://www.neowsapp.com/rest/v1/neo/3249704?api_key=iIulBulltgU6a56xZRHN4H3l9WmuAYTsLGpBGhQ2"
    },
    "id": "3249704",
    "neo_reference_id": "3249704",
    "name": "(2004 PD97)",
    "designation": "2004 PD97",
    "nasa_jpl_url": "http://ssd.jpl.nasa.gov/sbdb.cgi?sstr=3249704",
    "absolute_magnitude_h": 21.6,
    "estimated_diameter": {
        "kilometers": {
            "estimated_diameter_min": 0.1272198785,
            "estimated_diameter_max": 0.2844722965
        },
        "meters": {
            "estimated_diameter_min": 127.2198785394,
            "estimated_diameter_max": 284.4722965033
        },
        "miles": {
            "estimated_diameter_min": 0.0790507431,
            "estimated_diameter_max": 0.1767628354
        },
        "feet": {
            "estimated_diameter_min": 417.3880663071,
            "estimated_diameter_max": 933.3080892598
        }
    },
    "is_potentially_hazardous_asteroid": false,
    "close_approach_data": [
        {
            "close_approach_date": "1997-08-22",
            "close_approach_date_full": "1997-Aug-22 12:46",
            "epoch_date_close_approach": 872253960000,
            "relative_velocity": {
                "kilometers_per_second": "11.6411741883",
                "kilometers_per_hour": "41908.2270777713",
                "miles_per_hour": "26040.1425417407"
            },
            "miss_distance": {
                "astronomical": "0.3638698674",
                "lunar": "141.5453784186",
                "kilometers": "54434157.120222438",
                "miles": "33823816.8032801244"
            },
            "orbiting_body": "Earth"
        },
        {
            "close_approach_date": "2004-07-29",
            "close_approach_date_full": "2004-Jul-29 18:47",
            "epoch_date_close_approach": 1091126820000,
            "relative_velocity": {
                "kilometers_per_second": "7.3420226796",
                "kilometers_per_hour": "26431.281646559",
                "miles_per_hour": "16423.3705319966"
            },
            "miss_distance": {
                "astronomical": "0.2030786156",
                "lunar": "78.9975814684",
                "kilometers": "30380128.336308772",
                "miles": "18877336.3944621736"
            },
            "orbiting_body": "Earth"
        }
    ],
    "orbital_data": {
        "orbit_id": "11",
        "orbit_determination_date": "2017-04-06 09:12:28",
        "first_observation_date": "2004-08-12",
        "last_observation_date": "2004-10-09",
        "data_arc_in_days": 58,
        "observations_used": 29,
        "orbit_uncertainty": "6",
        "minimum_orbit_intersection": ".144345",
        "jupiter_tisserand_invariant": "3.418",
        "epoch_osculation": "2459000.5",
        "eccentricity": ".4936558172870276",
        "semi_major_axis": "2.285593061334059",
        "inclination": "8.211079676315332",
        "ascending_node_longitude": "139.5892178239054",
        "orbital_period": "1262.108786699552",
        "perihelion_distance": "1.157296750655635",
        "perihelion_argument": "173.6754629786862",
        "aphelion_distance": "3.413889372012483",
        "perihelion_time": "2459524.868617991879",
        "mean_anomaly": "210.4307200247594",
        "mean_motion": ".285236901758215",
        "equinox": "J2000",
        "orbit_class": {
            "orbit_class_type": "AMO",
            "orbit_class_description": "Near-Earth asteroid orbits similar to that of 1221 Amor",
            "orbit_class_range": "1.017 AU < q (perihelion) < 1.3 AU"
        }
    },
    "is_sentry_object": false
}